{
  "type": "FeatureCollection",
  "features": [
    {
      "type": "Feature",
      "properties": {
        "norad_id": 44333,
        "name": "AT&T T-16",
        "group": "intelsat",
        "lat": 0.028650766525975428,
        "lon": 92.19240163026367,
        "alt_km": 35783.2010106773,
        "timestamp": "2025-12-19T06:59:43.571904+00:00",
        "meta_object_name": "AT&T T-16",
        "meta_object_id": "2019-034A",
        "meta_epoch": "2025-12-18T23:05:13.350912",
        "meta_mean_motion": 1.00272379,
        "meta_eccentricity": 9.692e-05,
        "meta_inclination": 0.0254,
        "meta_ra_of_asc_node": 65.8421,
        "meta_arg_of_pericenter": 74.8034,
        "meta_mean_anomaly": 192.6147,
        "meta_ephemeris_type": 0,
        "meta_classification_type": "U",
        "meta_norad_cat_id": 44333,
        "meta_element_set_no": 999,
        "meta_rev_at_epoch": 2382,
        "meta_bstar": 0,
        "meta_mean_motion_dot": -9.1e-07,
        "meta_mean_motion_ddot": 0,
        "tle_line1": "1 44333U 19034A   25352.96196008 -.00000091  00000+0  00000+0 0  9999",
        "tle_line2": "2 44333   0.0254  65.8421 0000969  74.8034 192.6147  1.00272379 23822"
      },
      "geometry": {
        "type": "Point",
        "coordinates": [
          92.19240163026367,
          0.028650766525975428
        ]
      }
    },
    {
      "type": "Feature",
      "properties": {
        "norad_id": 44476,
        "name": "INTELSAT 39 (IS-39)",
        "group": "intelsat",
        "lat": -0.007026442493150343,
        "lon": -104.9860821664593,
        "alt_km": 35788.526403246564,
        "timestamp": "2025-12-19T06:59:43.571915+00:00",
        "meta_object_name": "INTELSAT 39 (IS-39)",
        "meta_object_id": "2019-049B",
        "meta_epoch": "2025-12-18T22:20:38.925312",
        "meta_mean_motion": 1.00271229,
        "meta_eccentricity": 9.49e-05,
        "meta_inclination": 0.0027,
        "meta_ra_of_asc_node": 71.9788,
        "meta_arg_of_pericenter": 58.0735,
        "meta_mean_anomaly": 354.8397,
        "meta_ephemeris_type": 0,
        "meta_classification_type": "U",
        "meta_norad_cat_id": 44476,
        "meta_element_set_no": 999,
        "meta_rev_at_epoch": 2332,
        "meta_bstar": 0,
        "meta_mean_motion_dot": 5.8e-07,
        "meta_mean_motion_ddot": 0,
        "tle_line1": "1 44476U 19049B   25352.93100608  .00000058  00000+0  00000+0 0  9993",
        "tle_line2": "2 44476   0.0027  71.9788 0000949  58.0735 354.8397  1.00271229 23329"
      },
      "geometry": {
        "type": "Point",
        "coordinates": [
          -104.9860821664593,
          -0.007026442493150343
        ]
      }
    },
    {
      "type": "Feature",
      "properties": {
        "norad_id": 46114,
        "name": "GALAXY 30 (G-30)",
        "group": "intelsat",
        "lat": 0.05218884349840617,
        "lon": 68.07048413144982,
        "alt_km": 35793.84998835411,
        "timestamp": "2025-12-19T06:59:43.571927+00:00",
        "meta_object_name": "GALAXY 30 (G-30)",
        "meta_object_id": "2020-056C",
        "meta_epoch": "2025-12-18T22:58:21.508896",
        "meta_mean_motion": 1.00272074,
        "meta_eccentricity": 0.00020303,
        "meta_inclination": 0.0278,
        "meta_ra_of_asc_node": 359.9556,
        "meta_arg_of_pericenter": 271.9117,
        "meta_mean_anomaly": 35.5331,
        "meta_ephemeris_type": 0,
        "meta_classification_type": "U",
        "meta_norad_cat_id": 46114,
        "meta_element_set_no": 999,
        "meta_rev_at_epoch": 1948,
        "meta_bstar": 0,
        "meta_mean_motion_dot": 0,
        "meta_mean_motion_ddot": 0,
        "tle_line1": "1 46114U 20056C   25352.95719339  .00000000  00000+0  00000+0 0  9990",
        "tle_line2": "2 46114   0.0278 359.9556 0002030 271.9117  35.5331  1.00272074 19485"
      },
      "geometry": {
        "type": "Point",
        "coordinates": [
          68.07048413144982,
          0.05218884349840617
        ]
      }
    },
    {
      "type": "Feature",
      "properties": {
        "norad_id": 54026,
        "name": "GALAXY 33 (G-33)",
        "group": "intelsat",
        "lat": 0.025132063659366016,
        "lon": 60.075072067509865,
        "alt_km": 35792.1647405999,
        "timestamp": "2025-12-19T06:59:43.571938+00:00",
        "meta_object_name": "GALAXY 33 (G-33)",
        "meta_object_id": "2022-128A",
        "meta_epoch": "2025-12-18T22:56:06.724032",
        "meta_mean_motion": 1.00270804,
        "meta_eccentricity": 0.0001547,
        "meta_inclination": 0.0114,
        "meta_ra_of_asc_node": 28.7669,
        "meta_arg_of_pericenter": 238.3912,
        "meta_mean_anomaly": 31.6864,
        "meta_ephemeris_type": 0,
        "meta_classification_type": "U",
        "meta_norad_cat_id": 54026,
        "meta_element_set_no": 999,
        "meta_rev_at_epoch": 1193,
        "meta_bstar": 0,
        "meta_mean_motion_dot": 1.04e-06,
        "meta_mean_motion_ddot": 0,
        "tle_line1": "1 54026U 22128A   25352.95563338  .00000104  00000+0  00000+0 0  9994",
        "tle_line2": "2 54026   0.0114  28.7669 0001547 238.3912  31.6864  1.00270804 11932"
      },
      "geometry": {
        "type": "Point",
        "coordinates": [
          60.075072067509865,
          0.025132063659366016
        ]
      }
    },
    {
      "type": "Feature",
      "properties": {
        "norad_id": 54027,
        "name": "GALAXY 34 (G-34)",
        "group": "intelsat",
        "lat": 0.04671482143247434,
        "lon": 64.1329140417799,
        "alt_km": 35794.803152525994,
        "timestamp": "2025-12-19T06:59:43.571949+00:00",
        "meta_object_name": "GALAXY 34 (G-34)",
        "meta_object_id": "2022-128B",
        "meta_epoch": "2025-12-18T22:57:14.116032",
        "meta_mean_motion": 1.00267465,
        "meta_eccentricity": 0.00018429,
        "meta_inclination": 0.0224,
        "meta_ra_of_asc_node": 356.9779,
        "meta_arg_of_pericenter": 262.1215,
        "meta_mean_anomaly": 44.0913,
        "meta_ephemeris_type": 0,
        "meta_classification_type": "U",
        "meta_norad_cat_id": 54027,
        "meta_element_set_no": 999,
        "meta_rev_at_epoch": 1210,
        "meta_bstar": 0,
        "meta_mean_motion_dot": 0,
        "meta_mean_motion_ddot": 0,
        "tle_line1": "1 54027U 22128B   25352.95641338  .00000000  00000+0  00000+0 0  9997",
        "tle_line2": "2 54027   0.0224 356.9779 0001842 262.1215  44.0913  1.00267465 12104"
      },
      "geometry": {
        "type": "Point",
        "coordinates": [
          64.1329140417799,
          0.04671482143247434
        ]
      }
    },
    {
      "type": "Feature",
      "properties": {
        "norad_id": 54243,
        "name": "GALAXY 31 (G-31)",
        "group": "intelsat",
        "lat": 0.021683887220698965,
        "lon": 72.07436143213867,
        "alt_km": 35791.44566965697,
        "timestamp": "2025-12-19T06:59:43.571961+00:00",
        "meta_object_name": "GALAXY 31 (G-31)",
        "meta_object_id": "2022-153A",
        "meta_epoch": "2025-12-18T22:59:28.900896",
        "meta_mean_motion": 1.00270918,
        "meta_eccentricity": 0.00013721,
        "meta_inclination": 0.0177,
        "meta_ra_of_asc_node": 56.7066,
        "meta_arg_of_pericenter": 223.3433,
        "meta_mean_anomaly": 31.6392,
        "meta_ephemeris_type": 0,
        "meta_classification_type": "U",
        "meta_norad_cat_id": 54243,
        "meta_element_set_no": 999,
        "meta_rev_at_epoch": 532,
        "meta_bstar": 0,
        "meta_mean_motion_dot": 3.8e-07,
        "meta_mean_motion_ddot": 0,
        "tle_line1": "1 54243U 22153A   25352.95797339  .00000038  00000+0  00000+0 0  9999",
        "tle_line2": "2 54243   0.0177  56.7066 0001372 223.3433  31.6392  1.00270918  5320"
      },
      "geometry": {
        "type": "Point",
        "coordinates": [
          72.07436143213867,
          0.021683887220698965
        ]
      }
    },
    {
      "type": "Feature",
      "properties": {
        "norad_id": 54244,
        "name": "GALAXY 32 (G-32)",
        "group": "intelsat",
        "lat": 0.03176759641928952,
        "lon": 102.07692465838785,
        "alt_km": 35795.04390027509,
        "timestamp": "2025-12-19T06:59:43.571973+00:00",
        "meta_object_name": "GALAXY 32 (G-32)",
        "meta_object_id": "2022-153B",
        "meta_epoch": "2025-12-17T04:19:59.261664",
        "meta_mean_motion": 1.00271531,
        "meta_eccentricity": 0.000259,
        "meta_inclination": 0.0104,
        "meta_ra_of_asc_node": 339.7375,
        "meta_arg_of_pericenter": 338.8221,
        "meta_mean_anomaly": 101.4983,
        "meta_ephemeris_type": 0,
        "meta_classification_type": "U",
        "meta_norad_cat_id": 54244,
        "meta_element_set_no": 999,
        "meta_rev_at_epoch": 1131,
        "meta_bstar": 0,
        "meta_mean_motion_dot": -1.5e-06,
        "meta_mean_motion_ddot": 0,
        "tle_line1": "1 54244U 22153B   25351.18054701 -.00000150  00000+0  00000+0 0  9999",
        "tle_line2": "2 54244   0.0104 339.7375 0002590 338.8221 101.4983  1.00271531 11318"
      },
      "geometry": {
        "type": "Point",
        "coordinates": [
          102.07692465838785,
          0.03176759641928952
        ]
      }
    }
  ]
}